{
  "type": "FeatureCollection",
  "features": [
    {
      "id": "0",
      "type": "Feature",
      "properties": {
        "name": "广州塔",
        "type": "AOI_Outline",
        "points_count": 74
      },
      "geometry": {
        "type": "Polygon",
        "coordinates": [
          [
            [
              113.318634,
              23.109763
            ],
            [
              113.317727,
              23.10974
            ],
            [
              113.317716,
              23.109739
            ],
            [
              113.317706,
              23.109737
            ],
            [
              113.317696,
              23.109734
            ],
            [
              113.317687,
              23.109731
            ],
            [
              113.317677,
              23.109726
            ],
            [
              113.317669,
              23.10972
            ],
            [
              113.31766,
              23.109714
            ],
            [
              113.317653,
              23.109707
            ],
            [
              113.317646,
              23.109699
            ],
            [
              113.317548,
              23.109574
            ],
            [
              113.317542,
              23.109566
            ],
            [
              113.317538,
              23.109557
            ],
            [
              113.317534,
              23.109548
            ],
            [
              113.317531,
              23.109538
            ],
            [
              113.317529,
              23.109528
            ],
            [
              113.317529,
              23.109518
            ],
            [
              113.317529,
              23.109508
            ],
            [
              113.317531,
              23.109498
            ],
            [
              113.317534,
              23.109488
            ],
            [
              113.31775,
              23.108859
            ],
            [
              113.317753,
              23.108849
            ],
            [
              113.317756,
              23.108838
            ],
            [
              113.317759,
              23.108828
            ],
            [
              113.317762,
              23.108818
            ],
            [
              113.317764,
              23.108808
            ],
            [
              113.317766,
              23.108798
            ],
            [
              113.317768,
              23.108787
            ],
            [
              113.317769,
              23.108777
            ],
            [
              113.317771,
              23.108767
            ],
            [
              113.317848,
              23.108142
            ],
            [
              113.31785,
              23.108132
            ],
            [
              113.317855,
              23.108096
            ],
            [
              113.320242,
              23.108065
            ],
            [
              113.320425,
              23.108783
            ],
            [
              113.320508,
              23.108881
            ],
            [
              113.320513,
              23.10889
            ],
            [
              113.320519,
              23.108898
            ],
            [
              113.320526,
              23.108906
            ],
            [
              113.320533,
              23.108913
            ],
            [
              113.320541,
              23.10892
            ],
            [
              113.320549,
              23.108926
            ],
            [
              113.320936,
              23.109344
            ],
            [
              113.320934,
              23.109354
            ],
            [
              113.320932,
              23.109364
            ],
            [
              113.320929,
              23.109374
            ],
            [
              113.320925,
              23.109383
            ],
            [
              113.32092,
              23.109392
            ],
            [
              113.320914,
              23.109401
            ],
            [
              113.320907,
              23.109409
            ],
            [
              113.320899,
              23.109416
            ],
            [
              113.320891,
              23.109423
            ],
            [
              113.320698,
              23.10956
            ],
            [
              113.320689,
              23.109565
            ],
            [
              113.32068,
              23.10957
            ],
            [
              113.320671,
              23.109575
            ],
            [
              113.320661,
              23.109578
            ],
            [
              113.320652,
              23.109582
            ],
            [
              113.320642,
              23.109584
            ],
            [
              113.320632,
              23.109586
            ],
            [
              113.320622,
              23.109588
            ],
            [
              113.320611,
              23.109588
            ],
            [
              113.319343,
              23.109648
            ],
            [
              113.318733,
              23.109755
            ],
            [
              113.318722,
              23.109757
            ],
            [
              113.318712,
              23.109758
            ],
            [
              113.318701,
              23.10976
            ],
            [
              113.318691,
              23.109761
            ],
            [
              113.318681,
              23.109762
            ],
            [
              113.31867,
              23.109762
            ],
            [
              113.31866,
              23.109763
            ],
            [
              113.318649,
              23.109763
            ],
            [
              113.318639,
              23.109763
            ],
            [
              113.318634,
              23.109763
            ]
          ]
        ]
      }
    }
  ]
}