{
  "type": "FeatureCollection",
  "features": [
    {
      "type": "Feature",
      "properties": {
        "name": "望京西园三区",
        "type": "Building_Footprint",
        "part_index": 0,
        "points_count": 25,
        "source": "baidu_map_web_detail.guoke_geo_bud",
        "tool": "baidu-aoi-extractor --community",
        "collected_at": "2026-10-02 23:51:39",
        "uid": "5c5631c068d65e52c7f50d76",
        "aoi_uid": "22c6538b9c4e45c9b63c4fda74e3f4de"
      },
      "geometry": {
        "type": "Polygon",
        "coordinates": [
          [
            [
              116.469886,
              40.000326
            ],
            [
              116.469886,
              40.000281
            ],
            [
              116.469924,
              40.000282
            ],
            [
              116.469925,
              40.000265
            ],
            [
              116.469928,
              40.000193
            ],
            [
              116.469929,
              40.000175
            ],
            [
              116.469886,
              40.000174
            ],
            [
              116.469886,
              40.000009
            ],
            [
              116.469887,
              40.000008
            ],
            [
              116.469904,
              40.000009
            ],
            [
              116.46992,
              40.000013
            ],
            [
              116.46993,
              40.000018
            ],
            [
              116.46994,
              40.000023
            ],
            [
              116.46995,
              40.000033
            ],
            [
              116.469999,
              40.000034
            ],
            [
              116.469993,
              40.000168
            ],
            [
              116.469981,
              40.000168
            ],
            [
              116.469979,
              40.0002
            ],
            [
              116.469992,
              40.0002
            ],
            [
              116.470092,
              40.000203
            ],
            [
              116.47009,
              40.000262
            ],
            [
              116.470087,
              40.000332
            ],
            [
              116.470002,
              40.000329
            ],
            [
              116.469905,
              40.000326
            ],
            [
              116.469886,
              40.000326
            ]
          ]
        ]
      }
    },
    {
      "type": "Feature",
      "properties": {
        "name": "望京西园三区",
        "type": "Building_Footprint",
        "part_index": 1,
        "points_count": 13,
        "source": "baidu_map_web_detail.guoke_geo_bud",
        "tool": "baidu-aoi-extractor --community",
        "collected_at": "2026-10-02 23:51:39",
        "uid": "5c5631c068d65e52c7f50d76",
        "aoi_uid": "22c6538b9c4e45c9b63c4fda74e3f4de"
      },
      "geometry": {
        "type": "Polygon",
        "coordinates": [
          [
            [
              116.467704,
              39.998245
            ],
            [
              116.46758,
              39.998322
            ],
            [
              116.467065,
              39.997842
            ],
            [
              116.46718,
              39.99777
            ],
            [
              116.467223,
              39.997809
            ],
            [
              116.467415,
              39.997686
            ],
            [
              116.467584,
              39.997843
            ],
            [
              116.467393,
              39.997962
            ],
            [
              116.467488,
              39.998049
            ],
            [
              116.467678,
              39.99793
            ],
            [
              116.467834,
              39.998076
            ],
            [
              116.467648,
              39.998194
            ],
            [
              116.467704,
              39.998245
            ]
          ]
        ]
      }
    },
    {
      "type": "Feature",
      "properties": {
        "name": "望京西园三区",
        "type": "Building_Footprint",
        "part_index": 2,
        "points_count": 13,
        "source": "baidu_map_web_detail.guoke_geo_bud",
        "tool": "baidu-aoi-extractor --community",
        "collected_at": "2026-10-02 23:51:39",
        "uid": "5c5631c068d65e52c7f50d76",
        "aoi_uid": "22c6538b9c4e45c9b63c4fda74e3f4de"
      },
      "geometry": {
        "type": "Polygon",
        "coordinates": [
          [
            [
              116.47059,
              40.00035
            ],
            [
              116.470589,
              40.00035
            ],
            [
              116.470547,
              40.000349
            ],
            [
              116.470548,
              40.000332
            ],
            [
              116.470551,
              40.00026
            ],
            [
              116.470552,
              40.000242
            ],
            [
              116.470589,
              40.000243
            ],
            [
              116.47059,
              40.000243
            ],
            [
              116.470633,
              40.000245
            ],
            [
              116.470632,
              40.000262
            ],
            [
              116.470629,
              40.000335
            ],
            [
              116.470628,
              40.000351
            ],
            [
              116.47059,
              40.00035
            ]
          ]
        ]
      }
    },
    {
      "type": "Feature",
      "properties": {
        "name": "望京西园三区",
        "type": "Building_Footprint",
        "part_index": 3,
        "points_count": 6,
        "source": "baidu_map_web_detail.guoke_geo_bud",
        "tool": "baidu-aoi-extractor --community",
        "collected_at": "2026-10-02 23:51:39",
        "uid": "5c5631c068d65e52c7f50d76",
        "aoi_uid": "22c6538b9c4e45c9b63c4fda74e3f4de"
      },
      "geometry": {
        "type": "Polygon",
        "coordinates": [
          [
            [
              116.469545,
              39.996966
            ],
            [
              116.469596,
              39.996872
            ],
            [
              116.469649,
              39.996883
            ],
            [
              116.469877,
              39.997025
            ],
            [
              116.469781,
              39.997112
            ],
            [
              116.469545,
              39.996966
            ]
          ]
        ]
      }
    },
    {
      "type": "Feature",
      "properties": {
        "name": "望京西园三区",
        "type": "Building_Footprint",
        "part_index": 4,
        "points_count": 5,
        "source": "baidu_map_web_detail.guoke_geo_bud",
        "tool": "baidu-aoi-extractor --community",
        "collected_at": "2026-10-02 23:51:39",
        "uid": "5c5631c068d65e52c7f50d76",
        "aoi_uid": "22c6538b9c4e45c9b63c4fda74e3f4de"
      },
      "geometry": {
        "type": "Polygon",
        "coordinates": [
          [
            [
              116.469769,
              39.997886
            ],
            [
              116.469787,
              39.997599
            ],
            [
              116.469962,
              39.997606
            ],
            [
              116.469944,
              39.997892
            ],
            [
              116.469769,
              39.997886
            ]
          ]
        ]
      }
    }
  ],
  "provenance": {
    "source": "baidu_map_web_detail.guoke_geo_bud",
    "tool": "baidu-aoi-extractor --community",
    "collected_at": "2026-10-02 23:51:39",
    "uid": "5c5631c068d65e52c7f50d76",
    "aoi_uid": "22c6538b9c4e45c9b63c4fda74e3f4de"
  }
}