{
  "type": "FeatureCollection",
  "features": [
    {
      "id": "0",
      "type": "Feature",
      "properties": {
        "name": "长沙站",
        "type": "AOI_Outline",
        "points_count": 170
      },
      "geometry": {
        "type": "Polygon",
        "coordinates": [
          [
            [
              113.008024,
              28.19636
            ],
            [
              113.007994,
              28.195269
            ],
            [
              113.007995,
              28.195258
            ],
            [
              113.007999,
              28.195248
            ],
            [
              113.008005,
              28.195238
            ],
            [
              113.008013,
              28.195231
            ],
            [
              113.008022,
              28.195225
            ],
            [
              113.008032,
              28.195221
            ],
            [
              113.008043,
              28.19522
            ],
            [
              113.00812,
              28.195213
            ],
            [
              113.008132,
              28.195212
            ],
            [
              113.008142,
              28.195208
            ],
            [
              113.008152,
              28.195202
            ],
            [
              113.008161,
              28.195195
            ],
            [
              113.008167,
              28.195185
            ],
            [
              113.008172,
              28.195175
            ],
            [
              113.008175,
              28.195164
            ],
            [
              113.008198,
              28.194921
            ],
            [
              113.008217,
              28.194692
            ],
            [
              113.008301,
              28.193921
            ],
            [
              113.008302,
              28.19391
            ],
            [
              113.008306,
              28.193899
            ],
            [
              113.008312,
              28.193889
            ],
            [
              113.00832,
              28.193881
            ],
            [
              113.008329,
              28.193874
            ],
            [
              113.00834,
              28.19387
            ],
            [
              113.008351,
              28.193867
            ],
            [
              113.009692,
              28.193818
            ],
            [
              113.009703,
              28.193818
            ],
            [
              113.009713,
              28.193821
            ],
            [
              113.009723,
              28.193825
            ],
            [
              113.009732,
              28.193831
            ],
            [
              113.009738,
              28.19384
            ],
            [
              113.009743,
              28.193849
            ],
            [
              113.009746,
              28.19386
            ],
            [
              113.009864,
              28.195417
            ],
            [
              113.009872,
              28.195434
            ],
            [
              113.009883,
              28.195449
            ],
            [
              113.009899,
              28.19546
            ],
            [
              113.009921,
              28.195466
            ],
            [
              113.010374,
              28.195458
            ],
            [
              113.010449,
              28.195455
            ],
            [
              113.010578,
              28.195456
            ],
            [
              113.01059,
              28.195457
            ],
            [
              113.0106,
              28.195461
            ],
            [
              113.01061,
              28.195467
            ],
            [
              113.010618,
              28.195475
            ],
            [
              113.010624,
              28.195484
            ],
            [
              113.010629,
              28.195494
            ],
            [
              113.010631,
              28.195505
            ],
            [
              113.010707,
              28.19661
            ],
            [
              113.010756,
              28.197358
            ],
            [
              113.010777,
              28.197683
            ],
            [
              113.010775,
              28.197694
            ],
            [
              113.010772,
              28.197704
            ],
            [
              113.010766,
              28.197713
            ],
            [
              113.010758,
              28.19772
            ],
            [
              113.010749,
              28.197726
            ],
            [
              113.010739,
              28.197729
            ],
            [
              113.010728,
              28.197731
            ],
            [
              113.01066,
              28.197717
            ],
            [
              113.009999,
              28.197753
            ],
            [
              113.009988,
              28.197754
            ],
            [
              113.009978,
              28.197758
            ],
            [
              113.009969,
              28.197763
            ],
            [
              113.009961,
              28.197771
            ],
            [
              113.009955,
              28.19778
            ],
            [
              113.009951,
              28.19779
            ],
            [
              113.00995,
              28.197801
            ],
            [
              113.009964,
              28.198154
            ],
            [
              113.010017,
              28.199401
            ],
            [
              113.010039,
              28.199528
            ],
            [
              113.010061,
              28.200005
            ],
            [
              113.010092,
              28.20028
            ],
            [
              113.01009,
              28.200291
            ],
            [
              113.010086,
              28.2003
            ],
            [
              113.01008,
              28.200309
            ],
            [
              113.010072,
              28.200316
            ],
            [
              113.010063,
              28.200321
            ],
            [
              113.010053,
              28.200324
            ],
            [
              113.010042,
              28.200325
            ],
            [
              113.009243,
              28.200321
            ],
            [
              113.008568,
              28.200318
            ],
            [
              113.008557,
              28.200317
            ],
            [
              113.008545,
              28.200314
            ],
            [
              113.008535,
              28.20031
            ],
            [
              113.008525,
              28.200303
            ],
            [
              113.008517,
              28.200294
            ],
            [
              113.00851,
              28.200285
            ],
            [
              113.008505,
              28.200274
            ],
            [
              113.008408,
              28.199933
            ],
            [
              113.008375,
              28.199741
            ],
            [
              113.008364,
              28.199578
            ],
            [
              113.008311,
              28.198367
            ],
            [
              113.008308,
              28.198356
            ],
            [
              113.008304,
              28.198346
            ],
            [
              113.008297,
              28.198338
            ],
            [
              113.008289,
              28.198331
            ],
            [
              113.008279,
              28.198325
            ],
            [
              113.008269,
              28.198322
            ],
            [
              113.008258,
              28.198322
            ],
            [
              113.007767,
              28.198334
            ],
            [
              113.007755,
              28.198333
            ],
            [
              113.007743,
              28.198331
            ],
            [
              113.007732,
              28.198327
            ],
            [
              113.007722,
              28.19832
            ],
            [
              113.007712,
              28.198311
            ],
            [
              113.007701,
              28.198305
            ],
            [
              113.00769,
              28.198299
            ],
            [
              113.007678,
              28.198296
            ],
            [
              113.007665,
              28.198294
            ],
            [
              113.007652,
              28.198294
            ],
            [
              113.007241,
              28.198308
            ],
            [
              113.007105,
              28.198305
            ],
            [
              113.007093,
              28.198307
            ],
            [
              113.007082,
              28.198311
            ],
            [
              113.007071,
              28.198316
            ],
            [
              113.007061,
              28.198323
            ],
            [
              113.007053,
              28.198332
            ],
            [
              113.007046,
              28.198342
            ],
            [
              113.007041,
              28.198353
            ],
            [
              113.007044,
              28.198388
            ],
            [
              113.007043,
              28.198399
            ],
            [
              113.007039,
              28.198409
            ],
            [
              113.007033,
              28.198418
            ],
            [
              113.007026,
              28.198425
            ],
            [
              113.007017,
              28.198431
            ],
            [
              113.007007,
              28.198434
            ],
            [
              113.006996,
              28.198435
            ],
            [
              113.006964,
              28.198441
            ],
            [
              113.006305,
              28.198461
            ],
            [
              113.005712,
              28.19847
            ],
            [
              113.005701,
              28.198468
            ],
            [
              113.005691,
              28.198463
            ],
            [
              113.005683,
              28.198456
            ],
            [
              113.005676,
              28.198448
            ],
            [
              113.005671,
              28.198438
            ],
            [
              113.005668,
              28.198427
            ],
            [
              113.00566,
              28.198316
            ],
            [
              113.005663,
              28.198146
            ],
            [
              113.005627,
              28.197807
            ],
            [
              113.005588,
              28.197441
            ],
            [
              113.005566,
              28.196906
            ],
            [
              113.005514,
              28.19635
            ],
            [
              113.005515,
              28.196337
            ],
            [
              113.005516,
              28.196325
            ],
            [
              113.005518,
              28.196312
            ],
            [
              113.005522,
              28.1963
            ],
            [
              113.005526,
              28.196288
            ],
            [
              113.005532,
              28.196277
            ],
            [
              113.005538,
              28.196266
            ],
            [
              113.00556,
              28.196233
            ],
            [
              113.006888,
              28.196167
            ],
            [
              113.006898,
              28.196168
            ],
            [
              113.006909,
              28.19617
            ],
            [
              113.006918,
              28.196174
            ],
            [
              113.006927,
              28.196181
            ],
            [
              113.006933,
              28.196189
            ],
            [
              113.006938,
              28.196199
            ],
            [
              113.00694,
              28.196209
            ],
            [
              113.006946,
              28.19636
            ],
            [
              113.006949,
              28.19637
            ],
            [
              113.006953,
              28.196379
            ],
            [
              113.00696,
              28.196388
            ],
            [
              113.006968,
              28.196394
            ],
            [
              113.006978,
              28.196399
            ],
            [
              113.006988,
              28.196401
            ],
            [
              113.006999,
              28.196401
            ],
            [
              113.007621,
              28.196361
            ],
            [
              113.008024,
              28.19636
            ]
          ]
        ]
      }
    }
  ]
}